COSMOS 2493 (SKRL-756 1)
1 39490U 13078A   26068.88109627  .00005252  00000+0  40276-3 0  9992
2 39490  82.4165 358.3033 0011855 214.7485 145.2966 15.01584319663059
STARLINK-5679           
1 55467U 23015U   26068.42063588 -.00000011  00000+0  14216-4 0  9996
2 55467  43.0019 327.4450 0000812 280.2917  79.7834 15.02531061170719
